NORAD_CAT_ID,OBJECT_NAME,OBJECT_TYPE,EPOCH,MEAN_MOTION,ECCENTRICITY,INCLINATION,RA_OF_ASC_NODE,ARG_OF_PERICENTER,MEAN_ANOMALY,BSTAR,MEAN_MOTION_DOT,MEAN_MOTION_DDOT,TLE_LINE0,TLE_LINE1,TLE_LINE2,SEMIMAJOR_AXIS,PERIOD,APOGEE,PERIGEE,DECAYED
52566.0,STARLINK-3938,PAYLOAD,2023-09-04 12:15:47,15.08832366,0.0001336,53.2164,291.4997,90.6323,269.4822,7.6977e-06,-1.65e-06,0.0,0 STARLINK-3938,1 52566U 22051AK  23247.51096081 -.00000165  00000-0  76977-5 0  9996,2 52566  53.2164 291.4997 0001336  90.6323 269.4822 15.08832366 72918,6917.904,95.438,540.693,538.844,0.0
52566.0,STARLINK-3938,PAYLOAD,2023-09-04 15:26:33,15.08833614,0.0001349,53.2163,290.905,90.0081,270.1065,1.8867e-05,1.2e-07,0.0,0 STARLINK-3938,1 52566U 22051AK  23247.64344084  .00000012  00000-0  18867-4 0  9992,2 52566  53.2163 290.9050 0001349  90.0081 270.1065 15.08833614 73006,6917.9,95.438,540.698,538.832,0.0
52566.0,STARLINK-3938,PAYLOAD,2023-09-05 12:06:33,15.08842537,0.0001341,53.2153,287.0389,90.588,269.5265,0.00017077,2.431e-05,0.0,0 STARLINK-3938,1 52566U 22051AK  23248.50455622  .00002431  00000-0  17077-3 0  9997,2 52566  53.2153 287.0389 0001341  90.5880 269.5265 15.08842537 73133,6917.873,95.437,540.665,538.81,0.0
52566.0,STARLINK-3938,PAYLOAD,2023-09-06 11:57:20,15.08851415,0.0001349,53.2152,282.5782,93.3274,266.7872,0.00038173,5.794e-05,0.0,0 STARLINK-3938,1 52566U 22051AK  23249.49815433  .00005794  00000-0  38173-3 0  9991,2 52566  53.2152 282.5782 0001349  93.3274 266.7872 15.08851415 73212,6917.845,95.437,540.644,538.777,0.0
52566.0,STARLINK-3938,PAYLOAD,2023-09-07 02:15:49,15.08840514,0.0001659,53.2143,279.9033,84.1437,275.9744,0.00013409,1.847e-05,0.0,0 STARLINK-3938,1 52566U 22051AK  23250.09432021  .00001847  00000-0  13409-3 0  9997,2 52566  53.2143 279.9033 0001659  84.1437 275.9744 15.08840514 73379,6917.879,95.438,540.891,538.596,0.0
52566.0,STARLINK-3938,PAYLOAD,2023-09-07 11:48:07,15.08841733,0.0001454,53.2163,278.1182,92.8629,267.2529,4.3448e-05,4.04e-06,0.0,0 STARLINK-3938,1 52566U 22051AK  23250.49175879  .00000404  00000-0  43448-4 0  9991,2 52566  53.2163 278.1182 0001454  92.8629 267.2529 15.08841733 73367,6917.875,95.437,540.746,538.734,0.0
52566.0,STARLINK-3938,PAYLOAD,2023-09-08 08:28:10,15.0877763,0.0002172,53.2165,274.252,100.39,259.7337,0.0010816,0.00016938,0.0,0 STARLINK-3938,1 52566U 22051AK  23251.35289494  .00016938  00000-0  10816-2 0  9996,2 52566  53.2165 274.2520 0002172 100.3900 259.7337 15.08777630 73566,6918.071,95.441,541.439,538.433,0.0
52566.0,STARLINK-3938,PAYLOAD,2023-09-08 11:38:54,15.0884748,0.0001516,53.2166,273.6579,93.0906,267.0259,4.3365e-05,4.02e-06,0.0,0 STARLINK-3938,1 52566U 22051AK  23251.48535398  .00000402  00000-0  43365-4 0  9993,2 52566  53.2166 273.6579 0001516  93.0906 267.0259 15.08847480 73510,6917.858,95.437,540.771,538.674,0.0
52566.0,STARLINK-3938,PAYLOAD,2023-09-08 18:00:27,15.08835037,0.0001383,53.2158,272.467,84.7247,275.3903,7.9761e-05,9.82e-06,0.0,0 STARLINK-3938,1 52566U 22051AK  23251.75032101  .00000982  00000-0  79761-4 0  9999,2 52566  53.2158 272.4670 0001383  84.7247 275.3903 15.08835037 73622,6917.896,95.438,540.717,538.804,0.0
52566.0,STARLINK-3938,PAYLOAD,2023-09-09 08:18:55,15.08839461,0.000138,53.216,269.791,86.6903,273.4247,9.5285e-05,1.229e-05,0.0,0 STARLINK-3938,1 52566U 22051AK  23252.34647913  .00001229  00000-0  95285-4 0  9992,2 52566  53.2160 269.7910 0001380  86.6903 273.4247 15.08839461 73645,6917.882,95.438,540.702,538.792,0.0
52566.0,STARLINK-3938,PAYLOAD,2023-09-10 06:34:19,15.08843598,0.000132,53.2156,265.6276,89.4368,270.6776,5.4813e-05,5.85e-06,0.0,0 STARLINK-3938,1 52566U 22051AK  23253.27383913  .00000585  00000-0  54813-4 0  9998,2 52566  53.2156 265.6276 0001320  89.4368 270.6776 15.08843598 73855,6917.869,95.437,540.648,538.821,0.0
52566.0,STARLINK-3938,PAYLOAD,2023-09-10 11:20:28,15.08847932,0.0001345,53.2159,264.7355,93.1444,266.9702,8.6086e-05,1.083e-05,0.0,0 STARLINK-3938,1 52566U 22051AK  23253.47255530  .00001083  00000-0  86086-4 0  9994,2 52566  53.2159 264.7355 0001345  93.1444 266.9702 15.08847932 73819,6917.856,95.437,540.652,538.791,0.0
52566.0,STARLINK-3938,PAYLOAD,2023-09-11 00:03:34,15.08834267,0.0001349,53.2159,262.3571,92.1024,268.0123,5.7375e-05,6.25e-06,0.0,0 STARLINK-3938,1 52566U 22051AK  23254.00248574  .00000625  00000-0  57375-4 0  9994,2 52566  53.2159 262.3571 0001349  92.1024 268.0123 15.08834267 73963,6917.898,95.438,540.696,538.83,0.0
52566.0,STARLINK-3938,PAYLOAD,2023-09-11 12:46:39,15.08839351,0.0001403,53.2162,259.9773,88.5728,271.5424,5.8572e-05,6.44e-06,0.0,0 STARLINK-3938,1 52566U 22051AK  23254.53240422  .00000644  00000-0  58572-4 0  9997,2 52566  53.2162 259.9773 0001403  88.5728 271.5424 15.08839351 73977,6917.882,95.438,540.718,538.777,0.0
52566.0,STARLINK-3938,PAYLOAD,2023-09-12 07:51:16,15.08851831,0.0001386,53.216,256.409,92.4331,267.682,0.00014314,1.992e-05,0.0,0 STARLINK-3938,1 52566U 22051AK  23255.32727542  .00001992  00000-0  14314-3 0  9990,2 52566  53.2160 256.4090 0001386  92.4331 267.6820 15.08851831 74168,6917.844,95.437,540.668,538.75,0.0
52566.0,STARLINK-3938,PAYLOAD,2023-09-12 12:37:25,15.0885055,0.0001326,53.2162,255.517,99.059,261.0553,0.00022106,3.233e-05,0.0,0 STARLINK-3938,1 52566U 22051AK  23255.52599439  .00003233  00000-0  22106-3 0  9992,2 52566  53.2162 255.5170 0001326  99.0590 261.0553 15.08850550 74127,6917.848,95.437,540.63,538.796,0.0
52566.0,STARLINK-3938,PAYLOAD,2023-09-12 17:23:36,15.08835052,0.0001211,53.2162,254.6249,87.0349,273.0781,-2.163e-05,-6.32e-06,0.0,0 STARLINK-3938,1 52566U 22051AK  23255.72472362 -.00000632  00000-0 -21630-4 0  9993,2 52566  53.2162 254.6249 0001211  87.0349 273.0781 15.08835052 74155,6917.896,95.438,540.598,538.923,0.0
52566.0,STARLINK-3938,PAYLOAD,2023-09-13 09:17:26,15.08855409,0.0001511,53.2147,251.6498,87.4791,272.6374,0.00041286,6.292e-05,0.0,0 STARLINK-3938,1 52566U 22051AK  23256.38711774  .00006292  00000-0  41286-3 0  9993,2 52566  53.2147 251.6498 0001511  87.4791 272.6374 15.08855409 74329,6917.833,95.437,540.744,538.653,0.0
52566.0,STARLINK-3938,PAYLOAD,2023-09-13 17:14:21,15.08872604,0.0001576,53.2148,250.1639,86.9117,273.2055,0.00078519,0.00012241,0.0,0 STARLINK-3938,1 52566U 22051AK  23256.71831003  .00012241  00000-0  78519-3 0  9998,2 52566  53.2148 250.1639 0001576  86.9117 273.2055 15.08872604 74372,6917.781,95.435,540.736,538.555,0.0
52566.0,STARLINK-3938,PAYLOAD,2023-09-14 09:08:13,15.08839042,0.000139,53.215,247.19,83.3188,276.7963,-0.00025403,-4.328e-05,0.0,0 STARLINK-3938,1 52566U 22051AK  23257.38071194 -.00004328  00000-0 -25403-3 0  9992,2 52566  53.2150 247.1900 0001390  83.3188 276.7963 15.08839042 74471,6917.883,95.438,540.71,538.787,0.0
52566.0,STARLINK-3938,PAYLOAD,2023-09-14 10:43:36,15.08836912,0.0001164,53.2149,246.8926,82.1237,277.9887,-0.00016335,-2.886e-05,0.0,0 STARLINK-3938,1 52566U 22051AK  23257.44695086 -.00002886  00000-0 -16335-3 0  9992,2 52566  53.2149 246.8926 0001164  82.1237 277.9887 15.08836912 74419,6917.89,95.438,540.56,538.95,0.0
52566.0,STARLINK-3938,PAYLOAD,2023-09-14 17:05:09,15.0883449,0.0001568,53.2161,245.7031,77.1493,282.9674,-0.00030153,-5.083e-05,0.0,0 STARLINK-3938,1 52566U 22051AK  23257.71191445 -.00005083  00000-0 -30153-3 0  9998,2 52566  53.2161 245.7031 0001568  77.1493 282.9674 15.08834490 74457,6917.897,95.438,540.847,538.678,0.0
52566.0,STARLINK-3938,PAYLOAD,2023-09-15 04:12:51,15.08827832,0.0001278,53.2161,243.6214,83.776,276.3377,-0.00020602,-3.564e-05,0.0,0 STARLINK-3938,1 52566U 22051AK  23258.17559947 -.00003564  00000-0 -20602-3 0  9994,2 52566  53.2161 243.6214 0001278  83.7760 276.3377 15.08827832 74599,6917.918,95.438,540.667,538.898,0.0
52566.0,STARLINK-3938,PAYLOAD,2023-09-15 10:34:24,15.0883134,0.0001389,53.2156,242.4312,89.7975,270.3176,0.00022836,3.347e-05,0.0,0 STARLINK-3938,1 52566U 22051AK  23258.44056105  .00003347  00000-0  22836-3 0  9990,2 52566  53.2156 242.4312 0001389  89.7975 270.3176 15.08831340 74563,6917.907,95.438,540.733,538.811,0.0
52566.0,STARLINK-3938,PAYLOAD,2023-09-16 08:49:48,15.0884024,0.00014,53.2159,238.2684,91.8568,268.2584,0.00045662,6.987e-05,0.0,0 STARLINK-3938,1 52566U 22051AK  23259.36792629  .00006987  00000-0  45662-3 0  9995,2 52566  53.2159 238.2684 0001400  91.8568 268.2584 15.08840240 74778,6917.88,95.438,540.713,538.776,0.0
52566.0,STARLINK-3938,PAYLOAD,2023-09-17 02:19:03,15.0883463,0.0001428,53.2169,234.9999,94.8747,265.2408,0.0001934,2.791e-05,0.0,0 STARLINK-3938,1 52566U 22051AK  23260.09657224  .00002791  00000-0  19340-3 0  9991,2 52566  53.2169 234.9999 0001428  94.8747 265.2408 15.08834630 74883,6917.897,95.438,540.75,538.774,0.0
52566.0,STARLINK-3938,PAYLOAD,2023-09-17 07:05:13,15.08840915,0.0001428,53.2163,234.1071,96.4858,263.6297,0.00028199,4.203e-05,0.0,0 STARLINK-3938,1 52566U 22051AK  23260.29529060  .00004203  00000-0  28199-3 0  9991,2 52566  53.2163 234.1071 0001428  96.4858 263.6297 15.08840915 74848,6917.878,95.437,540.73,538.755,0.0
52566.0,STARLINK-3938,PAYLOAD,2023-09-18 08:31:22,15.08852677,0.0001465,53.2162,229.3494,93.4175,266.6985,0.00035219,5.323e-05,0.0,0 STARLINK-3938,1 52566U 22051AK  23261.35512651  .00005323  00000-0  35219-3 0  9992,2 52566  53.2162 229.3494 0001465  93.4175 266.6985 15.08852677 75073,6917.842,95.437,540.72,538.693,0.0
52566.0,STARLINK-3938,PAYLOAD,2023-09-19 02:00:37,15.08841072,0.0001433,53.2161,226.0777,90.2251,269.8905,0.00019955,2.889e-05,0.0,0 STARLINK-3938,1 52566U 22051AK  23262.08377017  .00002889  00000-0  19955-3 0  9991,2 52566  53.2161 226.0777 0001433  90.2251 269.8905 15.08841072 75181,6917.877,95.437,540.733,538.751,0.0
52566.0,STARLINK-3938,PAYLOAD,2023-09-19 06:46:46,15.08861186,0.00014,53.2156,225.1857,92.5171,267.5982,0.00049914,7.669e-05,0.0,0 STARLINK-3938,1 52566U 22051AK  23262.28248221  .00007669  00000-0  49914-3 0  9996,2 52566  53.2156 225.1857 0001400  92.5171 267.5982 15.08861186 75216,6917.816,95.436,540.649,538.712,0.0
